OBJECT_NAME,OBJECT_ID,EPOCH,MEAN_MOTION,ECCENTRICITY,INCLINATION,RA_OF_ASC_NODE,ARG_OF_PERICENTER,MEAN_ANOMALY,EPHEMERIS_TYPE,CLASSIFICATION_TYPE,NORAD_CAT_ID,ELEMENT_SET_NO,REV_AT_EPOCH,BSTAR,MEAN_MOTION_DOT,MEAN_MOTION_DDOT
STARLINK-3729,2022-029AZ,2025-07-15T21:58:34.241376,15.08835135,.0001431,53.2184,52.0503,86.3160,273.7996,0,U,52135,999,18519,.31507E-4,.213E-5,0
STARLINK-3720,2022-029BA,2025-07-15T22:07:46.959456,15.08841078,.0001345,53.2176,52.0134,87.4172,272.6975,0,U,52136,999,18519,.43228E-4,.4E-5,0
STARLINK-3733,2022-029BB,2025-07-15T21:51:53.321184,15.08824428,.0001477,53.2198,52.0611,89.2317,270.8844,0,U,52137,999,18519,.23097E-3,.3388E-4,0
STARLINK-3723,2022-029BC,2025-07-15T22:02:29.094720,15.08837119,.0001247,53.2174,52.0284,86.7333,273.3802,0,U,52138,999,18519,.51193E-4,.527E-5,0
STARLINK-3730,2022-029BD,2025-07-15T21:34:39.503712,15.08841335,.0001388,53.2170,62.1137,90.1355,269.9796,0,U,52139,999,18504,.49808E-5,-.209E-5,0
STARLINK-3682,2022-029BE,2025-07-15T21:46:34.872384,15.08842952,.0001355,53.2188,52.0777,91.0672,269.0475,0,U,52140,999,18519,.43127E-4,.399E-5,0
MERIDIAN 10,2022-030A,2025-07-14T23:51:33.181056,2.00600694,.6742807,62.6613,176.3133,273.3479,17.7916,0,U,52145,999,2426,0,.281E-5,0
TK-2,2022-031A,2025-07-16T04:25:14.835072,15.01148423,.0013052,97.8485,24.7224,185.2596,174.8493,0,U,52150,999,18001,.13914E-3,.1723E-4,0
PUJIANG 2 (PJ-2),2022-031B,2025-07-16T03:54:28.471392,14.93689841,.0010756,97.8545,17.5955,234.4945,125.5272,0,U,52151,999,17962,.39303E-4,.358E-5,0
TIANPING 2A,2022-032A,2025-07-16T04:09:20.525472,14.95864156,.0009686,97.6320,239.0507,220.4151,139.6352,0,U,52153,999,17958,.74575E-4,.777E-5,0
TIANPING 2B,2022-032C,2025-07-16T04:29:18.960000,14.99687368,.0015907,97.6327,244.4234,233.0001,126.9767,0,U,52155,999,17988,.10178E-3,.1199E-4,0
TIANPING 2C,2022-032D,2025-07-16T04:14:47.609952,15.06743020,.0006229,97.6304,247.4028,215.8415,144.2395,0,U,52156,999,18017,.17332E-3,.2515E-4,0
OMNI-L1,2022-033A,2025-07-15T18:27:23.703840,14.80797341,.0004201,97.8686,277.4093,309.1312,50.9526,0,U,52157,999,17763,.72179E-4,.505E-5,0
GNOMES-3,2022-033B,2025-07-16T05:21:31.724640,14.83124438,.0010771,97.8561,274.3759,350.1836,9.9166,0,U,52158,999,17749,.17033E-3,.1336E-4,0
ENMAP,2022-033C,2025-07-15T21:16:25.524192,14.74958617,.0001421,97.9787,278.9673,86.6702,273.4669,0,U,52159,999,17708,.49641E-4,.283E-5,0
ARCSAT-1,2022-033E,2025-07-16T05:21:23.654880,15.44151188,.0005246,97.2926,281.6882,357.2190,2.9029,0,U,52161,999,18370,.13294E-3,.6003E-4,0
LYNK TOWER 1,2022-033F,2025-07-15T20:45:53.867520,15.58278784,.0002471,97.2917,286.4640,316.4689,43.6372,0,U,52162,999,18399,.2616E-3,.19715E-3,0
HAWK-4B,2022-033J,2025-07-16T05:19:51.652704,15.89019998,.0003958,97.2904,296.2095,238.4718,121.6168,0,U,52165,999,18465,.44504E-3,.125409E-2,.77176E-5
HAWK-4A,2022-033L,2025-07-16T05:19:22.669824,15.88927070,.000379,97.2819,295.3460,228.7939,131.3007,0,U,52167,999,18465,.4119E-3,.115476E-2,.68639E-5
HAWK-4C,2022-033P,2025-07-16T05:19:10.630848,15.88998460,.0004655,97.2902,296.1705,237.7498,122.3323,0,U,52170,999,18465,.45091E-3,.126968E-2,.78552E-5
NUSAT-25 (MARIA TELKES),2022-033Q,2025-07-16T04:10:24.207456,15.54151349,.0003055,97.2569,280.7061,152.9220,207.2194,0,U,52171,999,18405,.53799E-3,.34977E-3,0
NUSAT-26 (M SOMERVILLE),2022-033AD,2025-07-15T21:25:23.014272,15.28957120,.0007624,97.2696,276.2986,24.2782,335.8816,0,U,52184,999,5310,.31413E-3,.877E-4,0
GLOBAL-18,2022-034B,2025-07-15T20:48:37.128096,15.39560052,.000692,52.9852,50.6750,63.5907,296.5805,0,U,52196,999,18511,.36705E-3,.1429E-3,0
GAOFEN-3 03,2022-035A,2025-07-16T03:54:09.254304,14.42211265,.0001666,98.4095,205.5506,98.8428,261.2950,0,U,52200,999,17242,.11492E-4,-.6E-7,0
COSMOS 2554,2022-036A,2025-07-16T03:15:11.269440,13.96676819,.000548,67.1483,325.4533,279.3792,80.6673,0,U,52202,999,16702,.32547E-4,-.3E-6,0
ZHONGXING-6D,2022-038A,2025-07-15T20:02:38.438304,1.00272843,.0000846,0.0486,248.5161,318.2262,152.9104,0,U,52255,999,1204,0,-.346E-5,0
DAQI 1,2022-039A,2025-07-16T03:19:14.526912,14.57782869,.0002601,98.2459,136.4257,193.2824,166.8307,0,U,52257,999,17298,.56033E-4,.21E-5,0
STARLINK-3761,2022-041B,2025-07-16T02:27:25.904160,15.08845644,.0001332,53.2180,91.1524,91.6286,268.4859,0,U,52262,999,17986,-.18158E-5,-.317E-5,0
STARLINK-3786,2022-041C,2025-07-15T21:46:35.481504,15.08828925,.0001311,53.2180,92.0770,90.0953,270.0190,0,U,52263,999,17861,.1226E-3,.1663E-4,0
STARLINK-3795,2022-041D,2025-07-15T23:11:22.962336,15.08825119,.0001512,53.2174,91.8137,87.6485,272.4680,0,U,52264,999,17862,.20817E-3,.3025E-4,0
STARLINK-3740,2022-041E,2025-07-15T23:06:04.396896,15.08839777,.00014,53.2178,91.8302,90.9536,269.1617,0,U,52265,999,17862,.64921E-4,.745E-5,0
