STARLINK-3729           
1 52135U 22029AZ  25196.91567409  .00000213  00000+0  31507-4 0  9990
2 52135  53.2184  52.0503 0001431  86.3160 273.7996 15.08835135185195
STARLINK-3720           
1 52136U 22029BA  25196.92207129  .00000400  00000+0  43228-4 0  9993
2 52136  53.2176  52.0134 0001345  87.4172 272.6975 15.08841078185194
STARLINK-3733           
1 52137U 22029BB  25196.91103381  .00003388  00000+0  23097-3 0  9997
2 52137  53.2198  52.0611 0001477  89.2317 270.8844 15.08824428185191
STARLINK-3723           
1 52138U 22029BC  25196.91839230  .00000527  00000+0  51193-4 0  9998
2 52138  53.2174  52.0284 0001247  86.7333 273.3802 15.08837119185190
STARLINK-3730           
1 52139U 22029BD  25196.89906833 -.00000209  00000+0  49808-5 0  9999
2 52139  53.2170  62.1137 0001388  90.1355 269.9796 15.08841335185047
STARLINK-3682           
1 52140U 22029BE  25196.90734806  .00000399  00000+0  43127-4 0  9998
2 52140  53.2188  52.0777 0001355  91.0672 269.0475 15.08842952185199
MERIDIAN 10             
1 52145U 22030A   25195.99413404  .00000281  00000+0  00000+0 0  9999
2 52145  62.6613 176.3133 6742807 273.3479  17.7916  2.00600694 24268
TK-2                    
1 52150U 22031A   25197.18419948  .00001723  00000+0  13914-3 0  9992
2 52150  97.8485  24.7224 0013052 185.2596 174.8493 15.01148423180019
PUJIANG 2 (PJ-2)        
1 52151U 22031B   25197.16282953  .00000358  00000+0  39303-4 0  9999
2 52151  97.8545  17.5955 0010756 234.4945 125.5272 14.93689841179628
TIANPING 2A             
1 52153U 22032A   25197.17315423  .00000777  00000+0  74575-4 0  9997
2 52153  97.6320 239.0507 0009686 220.4151 139.6352 14.95864156179583
TIANPING 2B             
1 52155U 22032C   25197.18702500  .00001199  00000+0  10178-3 0  9993
2 52155  97.6327 244.4234 0015907 233.0001 126.9767 14.99687368179880
TIANPING 2C             
1 52156U 22032D   25197.17693993  .00002515  00000+0  17332-3 0  9990
2 52156  97.6304 247.4028 0006229 215.8415 144.2395 15.06743020180175
OMNI-L1                 
1 52157U 22033A   25196.76902435  .00000505  00000+0  72179-4 0  9998
2 52157  97.8686 277.4093 0004201 309.1312  50.9526 14.80797341177639
GNOMES-3                
1 52158U 22033B   25197.22328385  .00001336  00000+0  17033-3 0  9997
2 52158  97.8561 274.3759 0010771 350.1836   9.9166 14.83124438177495
ENMAP                   
1 52159U 22033C   25196.88640653  .00000283  00000+0  49641-4 0  9995
2 52159  97.9787 278.9673 0001421  86.6702 273.4669 14.74958617177082
ARCSAT-1                
1 52161U 22033E   25197.22319045  .00006003  00000+0  13294-3 0  9995
2 52161  97.2926 281.6882 0005246 357.2190   2.9029 15.44151188183700
LYNK TOWER 1            
1 52162U 22033F   25196.86520680  .00019715  00000+0  26160-3 0  9994
2 52162  97.2917 286.4640 0002471 316.4689  43.6372 15.58278784183994
HAWK-4B                 
1 52165U 22033J   25197.22212561  .00125409  77176-5  44504-3 0  9998
2 52165  97.2904 296.2095 0003958 238.4718 121.6168 15.89019998184651
HAWK-4A                 
1 52167U 22033L   25197.22179016  .00115476  68639-5  41190-3 0  9992
2 52167  97.2819 295.3460 0003790 228.7939 131.3007 15.88927070184653
HAWK-4C                 
1 52170U 22033P   25197.22165082  .00126968  78552-5  45091-3 0  9991
2 52170  97.2902 296.1705 0004655 237.7498 122.3323 15.88998460184654
NUSAT-25 (MARIA TELKES) 
1 52171U 22033Q   25197.17389129  .00034977  00000+0  53799-3 0  9995
2 52171  97.2569 280.7061 0003055 152.9220 207.2194 15.54151349184055
NUSAT-26 (M SOMERVILLE) 
1 52184U 22033AD  25196.89262748  .00008770  00000+0  31413-3 0  9995
2 52184  97.2696 276.2986 0007624  24.2782 335.8816 15.28957120 53108
GLOBAL-18               
1 52196U 22034B   25196.86709639  .00014290  00000+0  36705-3 0  9994
2 52196  52.9852  50.6750 0006920  63.5907 296.5805 15.39560052185113
GAOFEN-3 03             
1 52200U 22035A   25197.16260711 -.00000006  00000+0  11492-4 0  9996
2 52200  98.4095 205.5506 0001666  98.8428 261.2950 14.42211265172426
COSMOS 2554             
1 52202U 22036A   25197.13554710 -.00000030  00000+0  32547-4 0  9992
2 52202  67.1483 325.4533 0005480 279.3792  80.6673 13.96676819167025
ZHONGXING-6D            
1 52255U 22038A   25196.83516711 -.00000346  00000+0  00000+0 0  9991
2 52255   0.0486 248.5161 0000846 318.2262 152.9104  1.00272843 12044
DAQI 1                  
1 52257U 22039A   25197.13836258  .00000210  00000+0  56033-4 0  9990
2 52257  98.2459 136.4257 0002601 193.2824 166.8307 14.57782869172981
STARLINK-3761           
1 52262U 22041B   25197.10238315 -.00000317  00000+0 -18158-5 0  9993
2 52262  53.2180  91.1524 0001332  91.6286 268.4859 15.08845644179869
STARLINK-3786           
1 52263U 22041C   25196.90735511  .00001663  00000+0  12260-3 0  9990
2 52263  53.2180  92.0770 0001311  90.0953 270.0190 15.08828925178616
STARLINK-3795           
1 52264U 22041D   25196.96623799  .00003025  00000+0  20817-3 0  9992
2 52264  53.2174  91.8137 0001512  87.6485 272.4680 15.08825119178622
STARLINK-3740           
1 52265U 22041E   25196.96255089  .00000745  00000+0  64921-4 0  9997
2 52265  53.2178  91.8302 0001400  90.9536 269.1617 15.08839777178629
